[{"OBJECT_NAME":"STARLINK-4726","OBJECT_ID":"2022-111AF","EPOCH":"2026-03-09T20:35:08.069856","MEAN_MOTION":15.088405,"ECCENTRICITY":0.00012488,"INCLINATION":53.2167,"RA_OF_ASC_NODE":263.2327,"ARG_OF_PERICENTER":88.4404,"MEAN_ANOMALY":271.6731,"EPHEMERIS_TYPE":0,"CLASSIFICATION_TYPE":"U","NORAD_CAT_ID":53802,"ELEMENT_SET_NO":999,"REV_AT_EPOCH":19384,"BSTAR":5.8338932e-5,"MEAN_MOTION_DOT":6.41e-6,"MEAN_MOTION_DDOT":0},{"OBJECT_NAME":"USA 40 R\/B DEB","OBJECT_ID":"1989-061N","EPOCH":"2026-03-09T09:49:33.093120","MEAN_MOTION":11.84886734,"ECCENTRICITY":0.16014715,"INCLINATION":56.9516,"RA_OF_ASC_NODE":217.5526,"ARG_OF_PERICENTER":307.4414,"MEAN_ANOMALY":39.0995,"EPHEMERIS_TYPE":0,"CLASSIFICATION_TYPE":"U","NORAD_CAT_ID":23159,"ELEMENT_SET_NO":999,"REV_AT_EPOCH":24716,"BSTAR":0.0075061487,"MEAN_MOTION_DOT":0.00032695,"MEAN_MOTION_DDOT":0}]
